[{"OBJECT_NAME":"BRO-11","OBJECT_ID":"2023-174J","EPOCH":"2026-03-09T23:01:09.890400","MEAN_MOTION":15.26267731,"ECCENTRICITY":0.00104518,"INCLINATION":97.3961,"RA_OF_ASC_NODE":146.7679,"ARG_OF_PERICENTER":189.9892,"MEAN_ANOMALY":170.1141,"EPHEMERIS_TYPE":0,"CLASSIFICATION_TYPE":"U","NORAD_CAT_ID":58264,"ELEMENT_SET_NO":999,"REV_AT_EPOCH":12961,"BSTAR":0.00032296323,"MEAN_MOTION_DOT":8.313e-5,"MEAN_MOTION_DDOT":0},{"OBJECT_NAME":"STARLINK-33882","OBJECT_ID":"2025-091P","EPOCH":"2026-03-08T23:29:16.217952","MEAN_MOTION":15.27604135,"ECCENTRICITY":0.0001337,"INCLINATION":43.0012,"RA_OF_ASC_NODE":56.5202,"ARG_OF_PERICENTER":173.0414,"MEAN_ANOMALY":187.0457,"EPHEMERIS_TYPE":0,"CLASSIFICATION_TYPE":"U","NORAD_CAT_ID":63788,"ELEMENT_SET_NO":999,"REV_AT_EPOCH":4878,"BSTAR":0.0011650705,"MEAN_MOTION_DOT":0.00031961,"MEAN_MOTION_DDOT":0}]
